0 COSMOS 1024 DEB
1 26975U 78066F   13283.27551031  .00000372  00000-0  00000+0 0  7648
2 26975 068.4942 099.9240 5725196 051.3589 345.6773 02.05677770122330
0 COSMOS 1024 DEB
1 26975U 78066F   13292.98654432 -.00000289  00000-0  00000+0 0  7654
2 26975 068.4874 099.3426 5729888 051.1276 336.1988 02.05687078122534
